API VERSION: 1.2
API SOURCE: NASA/JPL Horizons API

*******************************************************************************
 Revised: April 12, 2021             Mercury                            199 / 1

 PHYSICAL DATA (updated 2024-Mar-04):
  Vol. Mean Radius (km) =  2439.4+-0.1    Density (g cm^-3)     = 5.427
  Mass x10^23 (kg)      =     3.302       Volume (x10^10 km^3)  = 6.085  
  Sidereal rot. period  =    58.6463 d    Sid. rot. rate (rad/s)= 0.00000124001
  Mean solar day        =   175.9421 d    Core radius (km)      = ~1600 
  Geometric Albedo      =     0.106       Surface emissivity    = 0.77+-0.06
  GM (km^3/s^2)         = 22031.86855     Equatorial radius, Re = 2440.53 km
  GM 1-sigma (km^3/s^2) =                 Mass ratio (Sun/plnt) = 6023682
  Mom. of Inertia       =     0.33        Equ. gravity  m/s^2   = 3.701     
  Atmos. pressure (bar) = < 5x10^-15      Max. angular diam.    = 11.0"   
  Mean Temperature (K)  = 440             Visual mag. V(1,0)    = -0.42 
  Obliquity to orbit[1] =  2.11' +/- 0.1' Hill's sphere rad. Rp = 94.4 
  Sidereal orb. per.    =  0.2408467 y    Mean Orbit vel.  km/s = 47.362 
  Sidereal orb. per.    = 87.969257  d    Escape vel. km/s      =  4.435
                                 Perihelion  Aphelion    Mean
  Solar Constant (W/m^2)         14462       6278        9126
  Maximum Planetary IR (W/m^2)   12700       5500        8000
  Minimum Planetary IR (W/m^2)   6           6           6
*******************************************************************************


*******************************************************************************
Ephemeris / API_USER Thu Feb 19 13:06:33 2026 Pasadena, USA      / Horizons
*******************************************************************************
Target body name: Mercury (199)                   {source: DE441}
Center body name: Earth (399)                     {source: DE441}
Center-site name: BODY CENTER
*******************************************************************************
Start time      : A.D. 2025-Feb-17 11:46:00.0000 TDB
Stop  time      : A.D. 2025-Feb-20 11:46:00.0000 TDB
Step-size       : 60 minutes
*******************************************************************************
Center geodetic : 0.0, 0.0, 0.0                   {E-lon(deg),Lat(deg),Alt(km)}
Center cylindric: 0.0, 0.0, 0.0                   {E-lon(deg),Dxy(km),Dz(km)}
Center radii    : 6378.137, 6378.137, 6356.752 km {Equator_a, b, pole_c}
Output units    : AU-D
Calendar mode   : Mixed Julian/Gregorian
Output type     : GEOMETRIC cartesian states
Output format   : 3 (position, velocity, LT, range, range-rate)
EOP file        : eop.260218.p260517
EOP coverage    : DATA-BASED 1962-JAN-20 TO 2026-FEB-18. PREDICTS-> 2026-MAY-16
Reference frame : Ecliptic of J2000.0
*******************************************************************************
JDTDB
   X     Y     Z
   VX    VY    VZ
   LT    RG    RR
*******************************************************************************
$$SOE
2460723.990277778 = A.D. 2025-Feb-17 11:46:00.0000 TDB 
 X = 1.203775253485051E+00 Y =-5.571742171692133E-01 Z =-3.652495616666970E-02
 VX= 7.194329525612000E-03 VY= 4.394468218779989E-02 VZ= 2.568969765300558E-03
 LT= 7.663945350503166E-03 RG= 1.326971002548323E+00 RR=-1.199598146899230E-02
2460724.031944444 = A.D. 2025-Feb-17 12:46:00.0000 TDB 
 X = 1.204072875691825E+00 Y =-5.553428189653857E-01 Z =-3.641772078460716E-02
 VX= 7.091508764088181E-03 VY= 4.396238206118908E-02 VZ= 2.578327096605227E-03
 LT= 7.661053381709502E-03 RG= 1.326470273673838E+00 RR=-1.203901583394762E-02
2460724.073611111 = A.D. 2025-Feb-17 13:46:00.0000 TDB 
 X = 1.204366210250274E+00 Y =-5.535106894677895E-01 Z =-3.631009569953197E-02
 VX= 6.988522514428365E-03 VY= 4.397978406989571E-02 VZ= 2.587675482163628E-03
 LT= 7.658151048668686E-03 RG= 1.325967750285588E+00 RR=-1.208211811197358E-02
2460724.115277778 = A.D. 2025-Feb-17 14:46:00.0000 TDB 
 X = 1.204655250278672E+00 Y =-5.516778411148172E-01 Z =-3.620208128765847E-02
 VX= 6.885371431524870E-03 VY= 4.399688690009992E-02 VZ= 2.597014755011724E-03
 LT= 7.655238335050638E-03 RG= 1.325463429556106E+00 RR=-1.212528819475858E-02
2460724.156944444 = A.D. 2025-Feb-17 15:46:00.0000 TDB 
 X = 1.204939988922766E+00 Y =-5.498442863996460E-01 Z =-3.609367793217855E-02
 VX= 6.782056179185426E-03 VY= 4.401368923596818E-02 VZ= 2.606344747204148E-03
 LT= 7.652315224551754E-03 RG= 1.324957308662510E+00 RR=-1.216852597047563E-02
2460724.198611111 = A.D. 2025-Feb-17 16:46:00.0000 TDB 
 X = 1.205220419356147E+00 Y =-5.480100378703209E-01 Z =-3.598488602330188E-02
 VX= 6.678577430192263E-03 VY= 4.403018975969922E-02 VZ= 2.615665289812517E-03
 LT= 7.649381700895773E-03 RG= 1.324449384786654E+00 RR=-1.221183132375098E-02
2460724.240277778 = A.D. 2025-Feb-17 17:46:00.0000 TDB 
 X = 1.205496534780627E+00 Y =-5.461751081298349E-01 Z =-3.587570595829783E-02
 VX= 6.574935866361153E-03 VY= 4.404638715157105E-02 VZ= 2.624976212923847E-03
 LT= 7.646437747834620E-03 RG= 1.323939655115271E+00 RR=-1.225520413563288E-02
2460724.281944444 = A.D. 2025-Feb-17 18:46:00.0000 TDB 
 X = 1.205768328426618E+00 Y =-5.443395098362092E-01 Z =-3.576613814153558E-02
 VX= 6.471132178600512E-03 VY= 4.406228008998844E-02 VZ= 2.634277345638987E-03
 LT= 7.643483349149295E-03 RG= 1.323428116840127E+00 RR=-1.229864428356005E-02
2460724.323611111 = A.D. 2025-Feb-17 19:46:00.0000 TDB 
 X = 1.206035793553508E+00 Y =-5.425032557025694E-01 Z =-3.565618298452587E-02
 VX= 6.367167066970492E-03 VY= 4.407786725153132E-02 VZ= 2.643568516071129E-03
 LT= 7.640518488650711E-03 RG= 1.322914767158169E+00 RR=-1.234215164133011E-02
2460724.365277778 = A.D. 2025-Feb-17 20:46:00.0000 TDB 
 X = 1.206298923450047E+00 Y =-5.406663584972208E-01 Z =-3.554584090596189E-02
 VX= 6.263041240742084E-03 VY= 4.409314731100384E-02 VZ= 2.652849551344367E-03
 LT= 7.637543150180604E-03 RG= 1.322399603271681E+00 RR=-1.238572607906788E-02
2460724.406944444 = A.D. 2025-Feb-17 21:46:00.0000 TDB 
 X = 1.206557711434731E+00 Y =-5.388288310437210E-01 Z =-3.543511233176090E-02
 VX= 6.158755418456226E-03 VY= 4.410811894148416E-02 VZ= 2.662120277592357E-03
 LT= 7.634557317612410E-03 RG= 1.321882622388434E+00 RR=-1.242936746319347E-02
2460724.448611111 = A.D. 2025-Feb-17 22:46:00.0000 TDB 
 X = 1.206812150856190E+00 Y =-5.369906862209517E-01 Z =-3.532399769510493E-02
 VX= 6.054310327982875E-03 VY= 4.412278081437513E-02 VZ= 2.671380519956966E-03
 LT= 7.631560974852152E-03 RG= 1.321363821721843E+00 RR=-1.247307565639046E-02
2460724.490277778 = A.D. 2025-Feb-17 23:46:00.0000 TDB 
 X = 1.207062235093574E+00 Y =-5.351519369631864E-01 Z =-3.521249743648256E-02
 VX= 5.949706706580103E-03 VY= 4.413713159945553E-02 VZ= 2.680630102587092E-03
 LT= 7.628554105839351E-03 RG= 1.320843198491122E+00 RR=-1.251685051757376E-02
2460724.531944444 = A.D. 2025-Feb-18 00:46:00.0000 TDB 
 X = 1.207307957556953E+00 Y =-5.333125962601575E-01 Z =-3.510061200373029E-02
 VX= 5.844945300953130E-03 VY= 4.415116996493227E-02 VZ= 2.689868848637424E-03
 LT= 7.625536694547946E-03 RG= 1.320320749921445E+00 RR=-1.256069190185743E-02
2460724.573611111 = A.D. 2025-Feb-18 01:46:00.0000 TDB 
 X = 1.207549311687705E+00 Y =-5.314726771571207E-01 Z =-3.498834185207376E-02
 VX= 5.740026867313355E-03 VY= 4.416489457749326E-02 VZ= 2.699096580267353E-03
 LT= 7.622508724987193E-03 RG= 1.319796473244100E+00 RR=-1.260459966052247E-02
2460724.615277778 = A.D. 2025-Feb-18 02:46:00.0000 TDB 
 X = 1.207786290958916E+00 Y =-5.296321927549170E-01 Z =-3.487568744416945E-02
 VX= 5.634952171437340E-03 VY= 4.417830410236107E-02 VZ= 2.708313118639946E-03
 LT= 7.619470181202603E-03 RG= 1.319270365696653E+00 RR=-1.264857364098436E-02
2460724.656944444 = A.D. 2025-Feb-18 03:46:00.0000 TDB 
 X = 1.208018888875780E+00 Y =-5.277911562100327E-01 Z =-3.476264925014620E-02
 VX= 5.529721988725736E-03 VY= 4.419139720334738E-02 VZ= 2.717518283920943E-03
 LT= 7.616421047276882E-03 RG= 1.318742424523109E+00 RR=-1.269261368676062E-02
2460724.698611111 = A.D. 2025-Feb-18 04:46:00.0000 TDB 
 X = 1.208247098976003E+00 Y =-5.259495807346574E-01 Z =-3.464922774764674E-02
 VX= 5.424337104262178E-03 VY= 4.420417254290829E-02 VZ= 2.726711895277849E-03
 LT= 7.613361307330853E-03 RG= 1.318212646974075E+00 RR=-1.273671963743821E-02
2460724.740277778 = A.D. 2025-Feb-18 05:46:00.0000 TDB 
 X = 1.208470914830202E+00 Y =-5.241074795967380E-01 Z =-3.453542342186920E-02
 VX= 5.318798312872126E-03 VY= 4.421662878220028E-02 VZ= 2.735893770879128E-03
 LT= 7.610290945524427E-03 RG= 1.317681030306924E+00 RR=-1.278089132864079E-02
2460724.781944444 = A.D. 2025-Feb-18 06:46:00.0000 TDB 
 X = 1.208690330042317E+00 Y =-5.222648661200339E-01 Z =-3.442123676560896E-02
 VX= 5.213106419181591E-03 VY= 4.422876458113711E-02 VZ= 2.745063727893395E-03
 LT= 7.607209946057548E-03 RG= 1.317147571785962E+00 RR=-1.282512859199601E-02
2460724.823611111 = A.D. 2025-Feb-18 07:46:00.0000 TDB 
 X = 1.208905338250020E+00 Y =-5.204217536841653E-01 Z =-3.430666827930006E-02
 VX= 5.107262237675840E-03 VY= 4.424057859844743E-02 VZ= 2.754221582488758E-03
 LT= 7.604118293171164E-03 RG= 1.316612268682593E+00 RR=-1.286943125510254E-02
2460724.865277778 = A.D. 2025-Feb-18 08:46:00.0000 TDB 
 X = 1.209115933125126E+00 Y =-5.185781557246630E-01 Z =-3.419171847105736E-02
 VX= 5.001266592757988E-03 VY= 4.425206949173329E-02 VZ= 2.763367149832166E-03
 LT= 7.601015971148197E-03 RG= 1.316075118275489E+00 RR=-1.291379914149718E-02
2460724.906944444 = A.D. 2025-Feb-18 09:46:00.0000 TDB 
 X = 1.209322108374009E+00 Y =-5.167340857330135E-01 Z =-3.407638785671756E-02
 VX= 4.895120318807521E-03 VY= 4.426323591752936E-02 VZ= 2.772500244088912E-03
 LT= 7.597902964314531E-03 RG= 1.315536117850761E+00 RR=-1.295823207062168E-02
